[
  {
    "name": "Adelaide Parcel Facility",
    "state": "SA",
    "postcode": 5037,
    "bookingUrl": "https://book.nookal.com/bookings/book/2B6Eb6DD-4eB5-D3b7-96d2-692BfCAAd95e/location/VZTLF"
  },
  {
    "name": "Adelaide Letters Facility",
    "state": "SA",
    "postcode": 5037,
    "bookingUrl": "https://book.nookal.com/bookings/book/2B6Eb6DD-4eB5-D3b7-96d2-692BfCAAd95e/location/UFVEV"
  },
  {
    "name": "Wingfield",
    "state": "SA",
    "postcode": 5013,
    "bookingUrl": "https://book.nookal.com/bookings/book/2B6Eb6DD-4eB5-D3b7-96d2-692BfCAAd95e/location/VCNUJ"
  },
 {
    "name": "Leightonfield DC",
    "state": "NSW",
    "postcode": 2163,
    "bookingUrl": "https://book.nookal.com/bookings/book/2B6Eb6DD-4eB5-D3b7-96d2-692BfCAAd95e/location/GRNJE"
  },
{
    "name": "Kingsgrove DF",
    "state": "NSW",
    "postcode": 2208,
    "bookingUrl": "https://book.nookal.com/bookings/book/2B6Eb6DD-4eB5-D3b7-96d2-692BfCAAd95e/location/WTEBJ"
  },
  {
    "name": "Camden Park",
    "state": "SA",
    "postcode": 5038,
    "bookingUrl": "https://book.nookal.com/bookings/book/2B6Eb6DD-4eB5-D3b7-96d2-692BfCAAd95e/location/GJZLN"
  },
  {
    "name": "Transport SA",
    "state": "SA",
    "postcode": 5031,
    "bookingUrl": "https://book.nookal.com/bookings/book/2B6Eb6DD-4eB5-D3b7-96d2-692BfCAAd95e/location/ZGMMJ"
  },
  {
    "name": "Salisbury South DC",
    "state": "SA",
    "postcode": 5106,
    "bookingUrl": "https://book.nookal.com/bookings/book/2B6Eb6DD-4eB5-D3b7-96d2-692BfCAAd95e/location/TMXFD"
  },
  {
    "name": "Glynde DC",
    "state": "SA",
    "postcode": 5070,
    "bookingUrl": "https://book.nookal.com/bookings/book/2B6Eb6DD-4eB5-D3b7-96d2-692BfCAAd95e/location/BUKEA"
  },
  {
    "name": "Port Adelaide DC",
    "state": "SA",
    "postcode": 5015,
    "bookingUrl": "https://book.nookal.com/bookings/book/2B6Eb6DD-4eB5-D3b7-96d2-692BfCAAd95e/location/VQVSQ"
  },
  {
    "name": "Modbury North DC",
    "state": "SA",
    "postcode": 5092,
    "bookingUrl": "https://book.nookal.com/bookings/book/2B6Eb6DD-4eB5-D3b7-96d2-692BfCAAd95e/location/PJTYS"
  },
  {
    "name": "Kent Town DC",
    "state": "SA",
    "postcode": 5067,
    "bookingUrl": "https://book.nookal.com/bookings/book/2B6Eb6DD-4eB5-D3b7-96d2-692BfCAAd95e/location/RPHYT"
  },
  {
    "name": "City Delivery Centre",
    "state": "SA",
    "postcode": 5000,
    "bookingUrl": "https://book.nookal.com/bookings/book/2B6Eb6DD-4eB5-D3b7-96d2-692BfCAAd95e/location/TYCYS"
  },
  {
    "name": "Edinburgh North DC",
    "state": "SA",
    "postcode": 5113,
    "bookingUrl": "https://book.nookal.com/bookings/book/2B6Eb6DD-4eB5-D3b7-96d2-692BfCAAd95e/location/HYRLS"
  },
  {
    "name": "Regency Park DC",
    "state": "SA",
    "postcode": 5010,
    "bookingUrl": "https://book.nookal.com/bookings/book/2B6Eb6DD-4eB5-D3b7-96d2-692BfCAAd95e/location/KMXAD"
  },
  {
    "name": "Lonsdale DC",
    "state": "SA",
    "postcode": 5160,
    "bookingUrl": "https://book.nookal.com/bookings/book/2B6Eb6DD-4eB5-D3b7-96d2-692BfCAAd95e/location/FMKPA"
  },
  {
    "name": "Mornington Hobart",
    "state": "TAS",
    "postcode": 7018,
    "bookingUrl": "https://book.nookal.com/bookings/book/2B6Eb6DD-4eB5-D3b7-96d2-692BfCAAd95e/location/BTXTJ"
  },
  {
    "name": "LPC St Leonards",
    "state": "TAS",
    "postcode": 7009,
    "bookingUrl": "https://book.nookal.com/bookings/book/2B6Eb6DD-4eB5-D3b7-96d2-692BfCAAd95e/location/ZKJGA"
  },
  {
    "name": "Launceston DC",
    "state": "TAS",
    "postcode": 7250,
    "bookingUrl": "https://book.nookal.com/bookings/book/2B6Eb6DD-4eB5-D3b7-96d2-692BfCAAd95e/location/AYMHM"
  },
  {
    "name": "Western Shore",
    "state": "TAS",
    "postcode": 7250,
    "bookingUrl": "https://book.nookal.com/bookings/book/2B6Eb6DD-4eB5-D3b7-96d2-692BfCAAd95e/location/KGFLY"
  },
  {
    "name": "DLC",
    "state": "VIC",
    "postcode": 3175,
    "bookingUrl": "https://book.nookal.com/bookings/book/2B6Eb6DD-4eB5-D3b7-96d2-692BfCAAd95e/location/MZKKS"
  },
  {
    "name": "Melboure Parcel Facility",
    "state": "VIC",
    "postcode": 3020,
    "bookingUrl": "https://book.nookal.com/bookings/book/2B6Eb6DD-4eB5-D3b7-96d2-692BfCAAd95e/location/AXQWP"
  },
  {
    "name": "Sunshine West",
    "state": "VIC",
    "postcode": 3020,
    "bookingUrl": "https://book.nookal.com/bookings/book/2B6Eb6DD-4eB5-D3b7-96d2-692BfCAAd95e/location/XRHFB"
  },
  {
    "name": "Annandale Rd",
    "state": "VIC",
    "postcode": 3043,
    "bookingUrl": "https://book.nookal.com/bookings/book/2B6Eb6DD-4eB5-D3b7-96d2-692BfCAAd95e/location/KVTPR"
  },
  {
    "name": "MSE",
    "state": "VIC",
    "postcode": 3175,
    "bookingUrl": "https://book.nookal.com/bookings/book/2B6Eb6DD-4eB5-D3b7-96d2-692BfCAAd95e/location/BACEV"
  },
  {
    "name": "DTF",
    "state": "VIC",
    "postcode": 3175,
    "bookingUrl": "https://book.nookal.com/bookings/book/2B6Eb6DD-4eB5-D3b7-96d2-692BfCAAd95e/location/SBFPC"
  },
  {
    "name": "TPF",
    "state": "VIC",
    "postcode": 3043,
    "bookingUrl": "https://book.nookal.com/bookings/book/2B6Eb6DD-4eB5-D3b7-96d2-692BfCAAd95e/location/YDCSW"
  },
{
    "name": "Tweed Heads DC",
    "state": "QLD",
    "postcode": 2485,
    "bookingUrl": "https://book.nookal.com/bookings/book/2B6Eb6DD-4eB5-D3b7-96d2-692BfCAAd95e/location/LVWBN"
  },
  {
    "name": "Avalon",
    "state": "VIC",
    "postcode": 3212,
    "bookingUrl": "https://book.nookal.com/bookings/book/2B6Eb6DD-4eB5-D3b7-96d2-692BfCAAd95e/location/WMDKF"
  },
  {
    "name": "MGF",
    "state": "VIC",
    "postcode": 3045,
    "bookingUrl": "https://book.nookal.com/bookings/book/2B6Eb6DD-4eB5-D3b7-96d2-692BfCAAd95e/location/XCGNW"
  },
  {
    "name": "Melbourne North Somerton",
    "state": "VIC",
    "postcode": 3062,
    "bookingUrl": "https://book.nookal.com/bookings/book/2B6Eb6DD-4eB5-D3b7-96d2-692BfCAAd95e/location/QCPHH"
  },
  {
    "name": "Bayswater PDC",
    "state": "VIC",
    "postcode": 3152,
    "bookingUrl": "https://book.nookal.com/bookings/book/2B6Eb6DD-4eB5-D3b7-96d2-692BfCAAd95e/location/KULLD"
  },
  {
    "name": "Sharps Rd Premium",
    "state": "VIC",
    "postcode": 3043,
    "bookingUrl": "https://book.nookal.com/bookings/book/2B6Eb6DD-4eB5-D3b7-96d2-692BfCAAd95e/location/EHARY"
  },
  {
    "name": "MTF",
    "state": "VIC",
    "postcode": 3020,
    "bookingUrl": "https://book.nookal.com/bookings/book/2B6Eb6DD-4eB5-D3b7-96d2-692BfCAAd95e/location/KVKPE"
  },
  {
    "name": "Airport West DC",
    "state": "VIC",
    "postcode": 3041,
    "bookingUrl": "https://book.nookal.com/bookings/book/2B6Eb6DD-4eB5-D3b7-96d2-692BfCAAd95e/location/MNJBM"
  },
  {
    "name": "Mulgrave ST",
    "state": "VIC",
    "postcode": 3170,
    "bookingUrl": "https://book.nookal.com/bookings/book/2B6Eb6DD-4eB5-D3b7-96d2-692BfCAAd95e/location/ZNWJW"
  },
  {
    "name": "Nunawading DC",
    "state": "VIC",
    "postcode": 3170,
    "bookingUrl": "https://book.nookal.com/bookings/book/2B6Eb6DD-4eB5-D3b7-96d2-692BfCAAd95e/location/DKGMN"
  },
  {
    "name": "North Melbourne DC",
    "state": "VIC",
    "postcode": 3051,
    "bookingUrl": "https://book.nookal.com/bookings/book/2B6Eb6DD-4eB5-D3b7-96d2-692BfCAAd95e/location/PVNWS"
  },
  {
    "name": "Mt Waverley",
    "state": "VIC",
    "postcode": 3149,
    "bookingUrl": "https://book.nookal.com/bookings/book/2B6Eb6DD-4eB5-D3b7-96d2-692BfCAAd95e/location/LUXVV"
  },
  {
    "name": "Geelong ST",
    "state": "VIC",
    "postcode": 3212,
    "bookingUrl": "https://book.nookal.com/bookings/book/2B6Eb6DD-4eB5-D3b7-96d2-692BfCAAd95e/location/FJJTH"
  },
  {
    "name": "PUD Oakleigh South",
    "state": "VIC",
    "postcode": 3167,
    "bookingUrl": "https://book.nookal.com/bookings/book/2B6Eb6DD-4eB5-D3b7-96d2-692BfCAAd95e/location/ZSADQ"
  },
  {
    "name": "Somerton DC",
    "state": "VIC",
    "postcode": 3062,
    "bookingUrl": "https://book.nookal.com/bookings/book/2B6Eb6DD-4eB5-D3b7-96d2-692BfCAAd95e/location/JTGKN"
  },
  {
    "name": "Preston DC",
    "state": "VIC",
    "postcode": 3072,
    "bookingUrl": "https://book.nookal.com/bookings/book/2B6Eb6DD-4eB5-D3b7-96d2-692BfCAAd95e/location/GKUTQ"
  },
  {
    "name": "BWM",
    "state": "WA",
    "postcode": 6106,
    "bookingUrl": "https://book.nookal.com/bookings/book/2B6Eb6DD-4eB5-D3b7-96d2-692BfCAAd95e/location/ARFBN"
  },
  {
    "name": "PMC",
    "state": "WA",
    "postcode": 6105,
    "bookingUrl": "https://book.nookal.com/bookings/book/2B6Eb6DD-4eB5-D3b7-96d2-692BfCAAd95e/location/NXXHN"
  },
  {
    "name": "ST Boud Ave",
    "state": "WA",
    "postcode": 6105,
    "bookingUrl": "https://book.nookal.com/bookings/book/2B6Eb6DD-4eB5-D3b7-96d2-692BfCAAd95e/location/VVYTG"
  },
  {
    "name": "Lee Close",
    "state": "WA",
    "postcode": 6105,
    "bookingUrl": "https://book.nookal.com/bookings/book/2B6Eb6DD-4eB5-D3b7-96d2-692BfCAAd95e/location/VTJVZ"
  },
  {
    "name": "Premium WA",
    "state": "WA",
    "postcode": 6105,
    "bookingUrl": "https://book.nookal.com/bookings/book/2B6Eb6DD-4eB5-D3b7-96d2-692BfCAAd95e/location/SGHEW"
  },
  {
    "name": "Transport WA",
    "state": "WA",
    "postcode": 6105,
    "bookingUrl": "https://book.nookal.com/bookings/book/2B6Eb6DD-4eB5-D3b7-96d2-692BfCAAd95e/location/KUHWF"
  },
  {
    "name": "Malaga DC",
    "state": "WA",
    "postcode": 6090,
    "bookingUrl": "https://book.nookal.com/bookings/book/2B6Eb6DD-4eB5-D3b7-96d2-692BfCAAd95e/location/DRWXD"
  },
  {
    "name": "Malaga PUD",
    "state": "WA",
    "postcode": 6090,
    "bookingUrl": "https://book.nookal.com/bookings/book/2B6Eb6DD-4eB5-D3b7-96d2-692BfCAAd95e/location/QRSJX"
  },
  {
    "name": "BWM Vans",
    "state": "WA",
    "postcode": 6106,
    "bookingUrl": "https://book.nookal.com/bookings/book/2B6Eb6DD-4eB5-D3b7-96d2-692BfCAAd95e/location/AAPSA"
  },
  {
    "name": "Wangara DC",
    "state": "WA",
    "postcode": 6065,
    "bookingUrl": "https://book.nookal.com/bookings/book/2B6Eb6DD-4eB5-D3b7-96d2-692BfCAAd95e/location/RBFZK"
  },
  {
    "name": "Canningvale DC",
    "state": "WA",
    "postcode": 6155,
    "bookingUrl": "https://book.nookal.com/bookings/book/2B6Eb6DD-4eB5-D3b7-96d2-692BfCAAd95e/location/PFEYJ"
  },
  {
    "name": "Kelmscott DC",
    "state": "WA",
    "postcode": 6111,
    "bookingUrl": "https://book.nookal.com/bookings/book/2B6Eb6DD-4eB5-D3b7-96d2-692BfCAAd95e/location/NANTM"
  },
  {
    "name": "Welshpool DC",
    "state": "WA",
    "postcode": 6106,
    "bookingUrl": "https://book.nookal.com/bookings/book/2B6Eb6DD-4eB5-D3b7-96d2-692BfCAAd95e/location/VUJRJ"
  },
  {
    "name": "Gwelup DC",
    "state": "WA",
    "postcode": 6018,
    "bookingUrl": "https://book.nookal.com/bookings/book/2B6Eb6DD-4eB5-D3b7-96d2-692BfCAAd95e/location/MBBRE"
  },
  {
    "name": "Nedlands DC",
    "state": "WA",
    "postcode": 6009,
    "bookingUrl": "https://book.nookal.com/bookings/book/2B6Eb6DD-4eB5-D3b7-96d2-692BfCAAd95e/location/JKZTZ"
  },
  {
    "name": "Bassendean DC",
    "state": "WA",
    "postcode": 6054,
    "bookingUrl": "https://book.nookal.com/bookings/book/2B6Eb6DD-4eB5-D3b7-96d2-692BfCAAd95e/location/MZWGA"
  },
  {
    "name": "Joondalup DC",
    "state": "WA",
    "postcode": 6027,
    "bookingUrl": "https://book.nookal.com/bookings/book/2B6Eb6DD-4eB5-D3b7-96d2-692BfCAAd95e/location/SUTWD"
  },
  {
    "name": "Bentley DC",
    "state": "WA",
    "postcode": 6102,
    "bookingUrl": "https://book.nookal.com/bookings/book/2B6Eb6DD-4eB5-D3b7-96d2-692BfCAAd95e/location/NMVEF"
  },
  {
    "name": "Butler DC",
    "state": "WA",
    "postcode": 6036,
    "bookingUrl": "https://book.nookal.com/bookings/book/2B6Eb6DD-4eB5-D3b7-96d2-692BfCAAd95e/location/CXNKD"
  },
  {
    "name": "City DC",
    "state": "WA",
    "postcode": 6000,
    "bookingUrl": "https://book.nookal.com/bookings/book/2B6Eb6DD-4eB5-D3b7-96d2-692BfCAAd95e/location/GBJBE"
  },
  {
    "name": "Palmyra DC",
    "state": "WA",
    "postcode": 6157,
    "bookingUrl": "https://book.nookal.com/bookings/book/2B6Eb6DD-4eB5-D3b7-96d2-692BfCAAd95e/location/VFZVC"
  },
  {
    "name": "Bibra Lake PUD",
    "state": "WA",
    "postcode": 6164,
    "bookingUrl": "https://book.nookal.com/bookings/book/2B6Eb6DD-4eB5-D3b7-96d2-692BfCAAd95e/location/UZLGT"
  },
  {
    "name": "Midland DC",
    "state": "WA",
    "postcode": 6056,
    "bookingUrl": "https://book.nookal.com/bookings/book/2B6Eb6DD-4eB5-D3b7-96d2-692BfCAAd95e/location/DFYQK"
  },
  {
    "name": "Osbourne Park DC",
    "state": "WA",
    "postcode": 6017,
    "bookingUrl": "https://book.nookal.com/bookings/book/2B6Eb6DD-4eB5-D3b7-96d2-692BfCAAd95e/location/ACLRB"
  },
  {
    "name": "Rockingham DC",
    "state": "WA",
    "postcode": 6168,
    "bookingUrl": "https://book.nookal.com/bookings/book/2B6Eb6DD-4eB5-D3b7-96d2-692BfCAAd95e/location/XXWGQ"
  },
  {
    "name": "Mandurah DC",
    "state": "WA",
    "postcode": 6210,
    "bookingUrl": "https://book.nookal.com/bookings/book/2B6Eb6DD-4eB5-D3b7-96d2-692BfCAAd95e/location/PCEBM"
  },
  {
    "name": "Bibra Lake DC",
    "state": "WA",
    "postcode": 6164,
    "bookingUrl": "https://book.nookal.com/bookings/book/2B6Eb6DD-4eB5-D3b7-96d2-692BfCAAd95e/location/LLTEQ"
  },
  {
    "name": "Walliston DC",
    "state": "WA",
    "postcode": 6076,
    "bookingUrl": "https://book.nookal.com/bookings/book/2B6Eb6DD-4eB5-D3b7-96d2-692BfCAAd95e/location/EGVPL"
  },
  {
    "name": "Ellenbrook Annexe",
    "state": "WA",
    "postcode": 6069,
    "bookingUrl": "https://book.nookal.com/bookings/book/2B6Eb6DD-4eB5-D3b7-96d2-692BfCAAd95e/location/SXFQL"
  },
  {
    "name": "BPF Processing",
    "state": "QLD",
    "postcode": 4301,
    "bookingUrl": "https://book.nookal.com/bookings/book/2B6Eb6DD-4eB5-D3b7-96d2-692BfCAAd95e/location/USKWU"
  },
  {
    "name": "BPF PUD",
    "state": "QLD",
    "postcode": 4301,
    "bookingUrl": "https://book.nookal.com/bookings/book/2B6Eb6DD-4eB5-D3b7-96d2-692BfCAAd95e/location/ZPCCB"
  },
  {
    "name": "BPF Transport",
    "state": "QLD",
    "postcode": 4301,
    "bookingUrl": "https://book.nookal.com/bookings/book/2B6Eb6DD-4eB5-D3b7-96d2-692BfCAAd95e/location/KAJEG"
  },
  {
    "name": "Brisbane Gateway\u00a0",
    "state": "QLD",
    "postcode": 4008,
    "bookingUrl": "https://book.nookal.com/bookings/book/2B6Eb6DD-4eB5-D3b7-96d2-692BfCAAd95e/location/PMMTE"
  },
  {
    "name": "Brendale/ Clontarf",
    "state": "QLD",
    "postcode": 4500,
    "bookingUrl": "https://book.nookal.com/bookings/book/2B6Eb6DD-4eB5-D3b7-96d2-692BfCAAd95e/location/FFLVH"
  },
  {
    "name": "Bundamba DC",
    "state": "QLD",
    "postcode": 4304,
    "bookingUrl": "https://book.nookal.com/bookings/book/2B6Eb6DD-4eB5-D3b7-96d2-692BfCAAd95e/location/VQEEA"
  },
  {
    "name": "Capalaba DC\u00a0",
    "state": "QLD",
    "postcode": 4157,
    "bookingUrl": "https://book.nookal.com/bookings/book/2B6Eb6DD-4eB5-D3b7-96d2-692BfCAAd95e/location/VLUYE"
  },
  {
    "name": "Coorparoo",
    "state": "QLD",
    "postcode": 4151,
    "bookingUrl": "https://book.nookal.com/bookings/book/2B6Eb6DD-4eB5-D3b7-96d2-692BfCAAd95e/location/RBWKT"
  },
  {
    "name": "Creastemad DC",
    "state": "QLD",
    "postcode": 4132,
    "bookingUrl": "https://book.nookal.com/bookings/book/2B6Eb6DD-4eB5-D3b7-96d2-692BfCAAd95e/location/BGUMR"
  },
  {
    "name": "Dara DC",
    "state": "QLD",
    "postcode": 4076,
    "bookingUrl": "https://book.nookal.com/bookings/book/2B6Eb6DD-4eB5-D3b7-96d2-692BfCAAd95e/location/PNUXB"
  },
  {
    "name": "Darra ST",
    "state": "QLD",
    "postcode": 4076,
    "bookingUrl": "https://book.nookal.com/bookings/book/2B6Eb6DD-4eB5-D3b7-96d2-692BfCAAd95e/location/VEKNV"
  },
  {
    "name": "Ferny Hills DC",
    "state": "QLD",
    "postcode": 4055,
    "bookingUrl": "https://book.nookal.com/bookings/book/2B6Eb6DD-4eB5-D3b7-96d2-692BfCAAd95e/location/PNGTJ"
  },
  {
    "name": "GC parcel facility",
    "state": "QLD",
    "postcode": 4214,
    "bookingUrl": "https://book.nookal.com/bookings/book/2B6Eb6DD-4eB5-D3b7-96d2-692BfCAAd95e/location/PYZTN"
  },
  {
    "name": "Mansfield DC",
    "state": "QLD",
    "postcode": 4122,
    "bookingUrl": "https://book.nookal.com/bookings/book/2B6Eb6DD-4eB5-D3b7-96d2-692BfCAAd95e/location/XCFGL"
  },
  {
    "name": "Murarrie PUD",
    "state": "QLD",
    "postcode": 4172,
    "bookingUrl": "https://book.nookal.com/bookings/book/2B6Eb6DD-4eB5-D3b7-96d2-692BfCAAd95e/location/TCAJN"
  },
  {
    "name": "Northgate Mail",
    "state": "QLD",
    "postcode": 4013,
    "bookingUrl": "https://book.nookal.com/bookings/book/2B6Eb6DD-4eB5-D3b7-96d2-692BfCAAd95e/location/AZDFR"
  },
  {
    "name": "Northgate Transport",
    "state": "QLD",
    "postcode": 4013,
    "bookingUrl": "https://book.nookal.com/bookings/book/2B6Eb6DD-4eB5-D3b7-96d2-692BfCAAd95e/location/FUCEW"
  },
  {
    "name": "Pinkenba PUD",
    "state": "QLD",
    "postcode": 4008,
    "bookingUrl": "https://book.nookal.com/bookings/book/2B6Eb6DD-4eB5-D3b7-96d2-692BfCAAd95e/location/BQXBZ"
  },
  {
    "name": "ST Premium",
    "state": "QLD",
    "postcode": 4008,
    "bookingUrl": "https://book.nookal.com/bookings/book/2B6Eb6DD-4eB5-D3b7-96d2-692BfCAAd95e/location/RUQUJ"
  },
  {
    "name": "Stafford DC",
    "state": "QLD",
    "postcode": 4053,
    "bookingUrl": "https://book.nookal.com/bookings/book/2B6Eb6DD-4eB5-D3b7-96d2-692BfCAAd95e/location/ZXTRW"
  },
  {
    "name": "ST Yandina:\u00a0",
    "state": "QLD",
    "postcode": 4561,
    "bookingUrl": "https://book.nookal.com/bookings/book/2B6Eb6DD-4eB5-D3b7-96d2-692BfCAAd95e/location/LWZWX"
  },
  {
    "name": "Tingalpa DC\u00a0",
    "state": "QLD",
    "postcode": 4173,
    "bookingUrl": "https://book.nookal.com/bookings/book/2B6Eb6DD-4eB5-D3b7-96d2-692BfCAAd95e/location/LFFXM"
  },
  {
    "name": "Virginia DC",
    "state": "QLD",
    "postcode": 4014,
    "bookingUrl": "https://book.nookal.com/bookings/book/2B6Eb6DD-4eB5-D3b7-96d2-692BfCAAd95e/location/DVJHZ"
  },
  {
    "name": "ST Westringia",
    "state": "QLD",
    "postcode": 4008,
    "bookingUrl": "https://book.nookal.com/bookings/book/2B6Eb6DD-4eB5-D3b7-96d2-692BfCAAd95e/location/RJGUE"
  },
  {
    "name": "KCPF",
    "state": "NSW",
    "postcode": 2178,
    "bookingUrl": "https://book.nookal.com/bookings/book/2B6Eb6DD-4eB5-D3b7-96d2-692BfCAAd95e/location/BFETQ"
  },
  {
    "name": "KCPF PUD",
    "state": "NSW",
    "postcode": 2178,
    "bookingUrl": "https://book.nookal.com/bookings/book/2B6Eb6DD-4eB5-D3b7-96d2-692BfCAAd95e/location/ATWXD"
  },
  {
    "name": "SWLF",
    "state": "NSW",
    "postcode": 2135,
    "bookingUrl": "https://book.nookal.com/bookings/book/2B6Eb6DD-4eB5-D3b7-96d2-692BfCAAd95e/location/GQJTL"
  },
  {
    "name": "Sydney Gateway Facility\u00a0",
    "state": "NSW",
    "postcode": 2142,
    "bookingUrl": "https://book.nookal.com/bookings/book/2B6Eb6DD-4eB5-D3b7-96d2-692BfCAAd95e/location/QGKJV"
  },
  {
    "name": "Hunter Transport",
    "state": "NSW",
    "postcode": 2304,
    "bookingUrl": "https://book.nookal.com/bookings/book/2B6Eb6DD-4eB5-D3b7-96d2-692BfCAAd95e/location/ZPRJZ"
  },
  {
    "name": "Hunter Vans (Newcastle PUD)",
    "state": "NSW",
    "postcode": 2304,
    "bookingUrl": "https://book.nookal.com/bookings/book/2B6Eb6DD-4eB5-D3b7-96d2-692BfCAAd95e/location/TRWFA"
  },
  {
    "name": "Newcastle Mail Centre",
    "state": "NSW",
    "postcode": 2304,
    "bookingUrl": "https://book.nookal.com/bookings/book/2B6Eb6DD-4eB5-D3b7-96d2-692BfCAAd95e/location/UTXZN"
  },
  {
    "name": "Newcastle ST Express",
    "state": "NSW",
    "postcode": 2285,
    "bookingUrl": "https://book.nookal.com/bookings/book/2B6Eb6DD-4eB5-D3b7-96d2-692BfCAAd95e/location/JGXMZ"
  },
  {
    "name": "Alexandria Delivery",
    "state": "NSW",
    "postcode": 2015,
    "bookingUrl": "https://book.nookal.com/bookings/book/2B6Eb6DD-4eB5-D3b7-96d2-692BfCAAd95e/location/EHRVZ"
  },
  {
    "name": "Alex Processing",
    "state": "NSW",
    "postcode": 2015,
    "bookingUrl": "https://book.nookal.com/bookings/book/2B6Eb6DD-4eB5-D3b7-96d2-692BfCAAd95e/location/SZRZN"
  },
  {
    "name": "Alexandria PUD",
    "state": "NSW",
    "postcode": 2015,
    "bookingUrl": "https://book.nookal.com/bookings/book/2B6Eb6DD-4eB5-D3b7-96d2-692BfCAAd95e/location/WXNNC"
  },
  {
    "name": "Botany PDC",
    "state": "NSW",
    "postcode": 2019,
    "bookingUrl": "https://book.nookal.com/bookings/book/2B6Eb6DD-4eB5-D3b7-96d2-692BfCAAd95e/location/LCSMV"
  },
  {
    "name": "Chullora ST Express",
    "state": "NSW",
    "postcode": 2190,
    "bookingUrl": "https://book.nookal.com/bookings/book/2B6Eb6DD-4eB5-D3b7-96d2-692BfCAAd95e/location/YBANP"
  },
  {
    "name": "Edgeworth DC",
    "state": "NSW",
    "postcode": 2285,
    "bookingUrl": "https://book.nookal.com/bookings/book/2B6Eb6DD-4eB5-D3b7-96d2-692BfCAAd95e/location/LULAU"
  },
  {
    "name": "Greenacre Premium",
    "state": "NSW",
    "postcode": 2190,
    "bookingUrl": "https://book.nookal.com/bookings/book/2B6Eb6DD-4eB5-D3b7-96d2-692BfCAAd95e/location/SGMXD"
  },
  {
    "name": "Ingleburn/Narellan",
    "state": "NSW",
    "postcode": 2565,
    "bookingUrl": "https://book.nookal.com/bookings/book/2B6Eb6DD-4eB5-D3b7-96d2-692BfCAAd95e/location/GWNAG"
  },
  {
    "name": "Beresfield (Metford DC)",
    "state": "NSW",
    "postcode": 2322,
    "bookingUrl": "https://book.nookal.com/bookings/book/2B6Eb6DD-4eB5-D3b7-96d2-692BfCAAd95e/location/ZEDBG"
  },
  {
    "name": "Minchinbury ST Express",
    "state": "NSW",
    "postcode": 2770,
    "bookingUrl": "https://book.nookal.com/bookings/book/2B6Eb6DD-4eB5-D3b7-96d2-692BfCAAd95e/location/XKYZJ"
  },
  {
    "name": "Nepean DF",
    "state": "NSW",
    "postcode": 2750,
    "bookingUrl": "https://book.nookal.com/bookings/book/2B6Eb6DD-4eB5-D3b7-96d2-692BfCAAd95e/location/KJCQZ"
  },
  {
    "name": "Seven Hills DF",
    "state": "NSW",
    "postcode": 2147,
    "bookingUrl": "https://book.nookal.com/bookings/book/2B6Eb6DD-4eB5-D3b7-96d2-692BfCAAd95e/location/YNUSY"
  },
  {
    "name": "Seven Hills PUD",
    "state": "NSW",
    "postcode": 2147,
    "bookingUrl": "https://book.nookal.com/bookings/book/2B6Eb6DD-4eB5-D3b7-96d2-692BfCAAd95e/location/KJPRY"
  },
  {
    "name": "SPF (Sydney Parcel Facility)",
    "state": "NSW",
    "postcode": 2190,
    "bookingUrl": "https://book.nookal.com/bookings/book/2B6Eb6DD-4eB5-D3b7-96d2-692BfCAAd95e/location/JRWPY"
  },
  {
    "name": "St Leonards DF",
    "state": "NSW",
    "postcode": 2065,
    "bookingUrl": "https://book.nookal.com/bookings/book/2B6Eb6DD-4eB5-D3b7-96d2-692BfCAAd95e/location/WVFAF"
  },
  {
    "name": "Strathfield DF",
    "state": "NSW",
    "postcode": 2135,
    "bookingUrl": "https://book.nookal.com/bookings/book/2B6Eb6DD-4eB5-D3b7-96d2-692BfCAAd95e/location/FXGPG"
  },
  {
    "name": "Sydney Transport Facility",
    "state": "NSW",
    "postcode": 2190,
    "bookingUrl": "https://book.nookal.com/bookings/book/2B6Eb6DD-4eB5-D3b7-96d2-692BfCAAd95e/location/NUPGH"
  },
  {
    "name": "Warabrook DC",
    "state": "NSW",
    "postcode": 2304,
    "bookingUrl": "https://book.nookal.com/bookings/book/2B6Eb6DD-4eB5-D3b7-96d2-692BfCAAd95e/location/HBCKV"
  },
  {
    "name": "Belconnen DC",
    "state": "ACT",
    "postcode": 2617,
    "bookingUrl": "https://book.nookal.com/bookings/book/2B6Eb6DD-4eB5-D3b7-96d2-692BfCAAd95e/location/MEXTJ"
  },
  {
    "name": "Canberra Processing",
    "state": "ACT",
    "postcode": 2610,
    "bookingUrl": "https://book.nookal.com/bookings/book/2B6Eb6DD-4eB5-D3b7-96d2-692BfCAAd95e/location/KBVPN"
  },
  {
    "name": "Canberra South DF",
    "state": "ACT",
    "postcode": 2610,
    "bookingUrl": "https://book.nookal.com/bookings/book/2B6Eb6DD-4eB5-D3b7-96d2-692BfCAAd95e/location/MPBME"
  },
  {
    "name": "Canberra Startrack",
    "state": "ACT",
    "postcode": 2620,
    "bookingUrl": "https://book.nookal.com/bookings/book/2B6Eb6DD-4eB5-D3b7-96d2-692BfCAAd95e/location/CWHAL"
  },
  {
    "name": "Canberra Vans North",
    "state": "ACT",
    "postcode": 2911,
    "bookingUrl": "https://book.nookal.com/bookings/book/2B6Eb6DD-4eB5-D3b7-96d2-692BfCAAd95e/location/CSVGH"
  },
  {
    "name": "Canberra Vans South",
    "state": "ACT",
    "postcode": 2609,
    "bookingUrl": "https://book.nookal.com/bookings/book/2B6Eb6DD-4eB5-D3b7-96d2-692BfCAAd95e/location/TZHLG"
  },
  {
    "name": "Fyshwick PDC",
    "state": "ACT",
    "postcode": 2609,
    "bookingUrl": "https://book.nookal.com/bookings/book/2B6Eb6DD-4eB5-D3b7-96d2-692BfCAAd95e/location/RPCNK"
  },
  {
    "name": "Mitchell DF",
    "state": "ACT",
    "postcode": 2911,
    "bookingUrl": "https://book.nookal.com/bookings/book/2B6Eb6DD-4eB5-D3b7-96d2-692BfCAAd95e/location/MXHDR"
  },
  {
    "name": "Tuggeranong DC",
    "state": "ACT",
    "postcode": 2901,
    "bookingUrl": "https://book.nookal.com/bookings/book/2B6Eb6DD-4eB5-D3b7-96d2-692BfCAAd95e/location/MQUWE"
  },
{
    "name": "French's Forest",
    "state": "NSW",
    "postcode": 2086,
    "bookingUrl": "https://book.nookal.com/bookings/book/2B6Eb6DD-4eB5-D3b7-96d2-692BfCAAd95e/location/JMVLB"
  },
{
    "name": "Hornsby DC",
    "state": "NSW",
    "postcode": 2077,
    "bookingUrl": "https://book.nookal.com/bookings/book/2B6Eb6DD-4eB5-D3b7-96d2-692BfCAAd95e/location/TMYNM"
  },
{
    "name": "Mount Kuring Gai",
    "state": "NSW",
    "postcode": 2080,
    "bookingUrl": "https://book.nookal.com/bookings/book/2B6Eb6DD-4eB5-D3b7-96d2-692BfCAAd95e/location/TTSGH"
  },
{
    "name": "Sunshine West PUD",
    "state": "VIC",
    "postcode": 3020,
    "bookingUrl": "https://book.nookal.com/bookings/book/2B6Eb6DD-4eB5-D3b7-96d2-692BfCAAd95e/location/WGFRN"
  },
{
    "name": "North Ryde DC",
    "state": "NSW",
    "postcode": 2113,
    "bookingUrl": "https://book.nookal.com/bookings/book/2B6Eb6DD-4eB5-D3b7-96d2-692BfCAAd95e/location/CPDGR"
  }
]